OBJECT_NAME,OBJECT_ID,EPOCH,MEAN_MOTION,ECCENTRICITY,INCLINATION,RA_OF_ASC_NODE,ARG_OF_PERICENTER,MEAN_ANOMALY,EPHEMERIS_TYPE,CLASSIFICATION_TYPE,NORAD_CAT_ID,ELEMENT_SET_NO,REV_AT_EPOCH,BSTAR,MEAN_MOTION_DOT,MEAN_MOTION_DDOT
ORBCOMM FM06,1997-084G,2026-07-14T12:45:16.657056,14.47626387,.00014577,45.0138,281.0706,229.7599,144.8337,0,U,25118,999,49835,.17032982E-3,.488E-5,0
ORBCOMM FM04,1998-007C,2026-07-16T00:43:10.754112,14.35785362,.0041972,107.9633,228.7844,275.5031,84.1323,0,U,25159,999,48073,.16175E-3,.339E-5,0
ORBCOMM FM19,1998-046C,2026-07-16T04:15:53.310240,14.39542326,.0003217,44.9935,105.7519,69.0417,82.7920,0,U,25415,999,46095,.16612E-3,.38E-5,0
ORBCOMM FM20,1998-046D,2026-07-16T02:53:48.083424,14.38101089,.0001317,44.9934,114.2656,4.5535,355.5325,0,U,25416,999,46095,.14378E-3,.297E-5,0
ORBCOMM FM27,1998-053G,2026-07-15T17:13:57.415296,14.39185302,.0002384,45.0036,199.8360,293.0455,67.0142,0,U,25481,999,45434,.13984714E-3,.294E-5,0
ORBCOMM FM32,1999-065C,2026-07-15T22:19:56.705088,14.37168558,.0005749,45.0159,37.1820,195.6927,164.3744,0,U,25982,999,39122,.13289E-3,.257E-5,0
ORBCOMM FM109,2014-040A,2026-07-15T07:33:26.350848,14.58872584,.00014907,47.0043,318.5000,322.3297,37.7484,0,U,40086,999,63845,.5738444E-4,.1E-5,0
ORBCOMM FM110,2015-081D,2026-07-16T03:23:45.423744,14.58918610,.0003623,47.0004,224.5348,226.4287,133.6298,0,U,41182,999,56185,.67064E-4,.146E-5,0
ORBCOMM FM118,2015-081E,2026-07-16T02:34:43.749120,14.58904245,.0002933,47.0024,225.0341,190.6424,169.4400,0,U,41183,999,56195,.44645E-4,.4E-6,0
ORBCOMM FM112,2015-081F,2026-07-16T04:19:04.694016,14.58939360,.0003635,46.9982,133.1428,332.4516,27.6177,0,U,41184,999,56318,.9067E-4,.258E-5,0
ORBCOMM FM113,2015-081G,2026-07-16T00:29:38.157792,14.58882535,.0002187,47.0000,134.2879,324.3840,35.6900,0,U,41185,999,56314,.59311E-4,.109E-5,0
ORBCOMM FM108,2015-081J,2026-07-15T23:34:53.289408,14.58911191,.0002594,47.0055,46.0488,325.0041,35.0674,0,U,41187,999,56428,.86643E-4,.239E-5,0
ORBCOMM FM117,2015-081K,2026-07-15T22:45:33.338592,14.58898153,.0003013,47.0019,44.8376,332.4251,27.6475,0,U,41188,999,56432,.81799E-4,.215E-5,0
ORBCOMM FM116,2015-081L,2026-07-16T04:51:25.314048,14.58906396,.0001567,47.0016,133.4253,232.4849,127.5894,0,U,41189,999,56317,.53592E-4,.82E-6,0
